[{"OBJECT_NAME":"STARLINK-4641","OBJECT_ID":"2022-107AG","EPOCH":"2026-03-09T21:24:11.129472","MEAN_MOTION":15.08837422,"ECCENTRICITY":0.00013285,"INCLINATION":53.216,"RA_OF_ASC_NODE":253.2472,"ARG_OF_PERICENTER":86.2475,"MEAN_ANOMALY":273.8669,"EPHEMERIS_TYPE":0,"CLASSIFICATION_TYPE":"U","NORAD_CAT_ID":53730,"ELEMENT_SET_NO":999,"REV_AT_EPOCH":19458,"BSTAR":1.0996683e-5,"MEAN_MOTION_DOT":-1.13e-6,"MEAN_MOTION_DDOT":0},{"OBJECT_NAME":"SL-8 DEB","OBJECT_ID":"1976-098E","EPOCH":"2026-03-09T08:07:12.416160","MEAN_MOTION":15.06605169,"ECCENTRICITY":0.00102283,"INCLINATION":74.028,"RA_OF_ASC_NODE":26.283,"ARG_OF_PERICENTER":218.296,"MEAN_ANOMALY":294.2383,"EPHEMERIS_TYPE":0,"CLASSIFICATION_TYPE":"U","NORAD_CAT_ID":18504,"ELEMENT_SET_NO":999,"REV_AT_EPOCH":18055,"BSTAR":0.0011587434,"MEAN_MOTION_DOT":0.00017191,"MEAN_MOTION_DDOT":0}]
